CTC2_L_00021001-01
1 30929U 24486OD  26070.40842593  .00000000  00000+0  00000-0 0  9996
2 30929  45.0000   0.0000 0000000   0.0000   0.0000 15.69614517    10
CTC2_L_00021001-02
1 30930U 26242TT  26070.40842593  .00000000  00000+0  00000-0 0  9990
2 30930  45.0000   0.0000 0000000   0.0000  90.0000 15.69614517    11
CTC2_L_00021001-03
1 30931U 26406SI  26070.40842593  .00000000  00000+0  00000-0 0  9993
2 30931  45.0000   0.0000 0000000   0.0000 180.0000 15.69614517    12
CTC2_L_00021001-04
1 30932U 23545UZ  26070.40842593  .00000000  00000+0  00000-0 0  9995
2 30932  45.0000   0.0000 0000000   0.0000 270.0000 15.69614517    13
CTC2_L_00021002-01
1 30933U 26221BA  26070.40842593  .00000000  00000+0  00000-0 0  9990
2 30933  45.0000  12.0000 0000000   0.0000  12.0000 15.69614517    11
CTC2_L_00021002-02
1 30934U 23430NT  26070.40842593  .00000000  00000+0  00000-0 0  9990
2 30934  45.0000  12.0000 0000000   0.0000 102.0000 15.69614517    12
CTC2_L_00021002-03
1 30935U 24128UH  26070.40842593  .00000000  00000+0  00000-0 0  9996
2 30935  45.0000  12.0000 0000000   0.0000 192.0000 15.69614517    12
CTC2_L_00021002-04
1 30936U 23755QT  26070.40842593  .00000000  00000+0  00000-0 0  9992
2 30936  45.0000  12.0000 0000000   0.0000 282.0000 15.69614517    13
CTC2_L_00021003-01
1 30937U 22289CN  26070.40842593  .00000000  00000+0  00000-0 0  9994
2 30937  45.0000  24.0000 0000000   0.0000  24.0000 15.69614517    11
CTC2_L_00021003-02
1 30938U 24207YF  26070.40842593  .00000000  00000+0  00000-0 0  9997
2 30938  45.0000  24.0000 0000000   0.0000 114.0000 15.69614517    12
CTC2_L_00021003-03
1 30939U 23721YG  26070.40842593  .00000000  00000+0  00000-0 0  9998
2 30939  45.0000  24.0000 0000000   0.0000 204.0000 15.69614517    13
CTC2_L_00021003-04
1 30940U 26291WS  26070.40842593  .00000000  00000+0  00000-0 0  9995
2 30940  45.0000  24.0000 0000000   0.0000 294.0000 15.69614517    14
CTC2_L_00021004-01
1 30941U 23958HM  26070.40842593  .00000000  00000+0  00000-0 0  9993
2 30941  45.0000  36.0000 0000000   0.0000  36.0000 15.69614517    12
CTC2_L_00021004-02
1 30942U 23114AQ  26070.40842593  .00000000  00000+0  00000-0 0  9998
2 30942  45.0000  36.0000 0000000   0.0000 126.0000 15.69614517    13
CTC2_L_00021004-03
1 30943U 26902KA  26070.40842593  .00000000  00000+0  00000-0 0  9997
2 30943  45.0000  36.0000 0000000   0.0000 216.0000 15.69614517    14
CTC2_L_00021004-04
1 30944U 24679NZ  26070.40842593  .00000000  00000+0  00000-0 0  9997
2 30944  45.0000  36.0000 0000000   0.0000 306.0000 15.69614517    15
CTC2_L_00021005-01
1 30945U 24255D   26070.40842593  .00000000  00000+0  00000-0 0  9998
2 30945  45.0000  48.0000 0000000   0.0000  48.0000 15.69614517    12
CTC2_L_00021005-02
1 30946U 23813RX  26070.40842593  .00000000  00000+0  00000-0 0  9998
2 30946  45.0000  48.0000 0000000   0.0000 138.0000 15.69614517    13
CTC2_L_00021005-03
1 30947U 23962WO  26070.40842593  .00000000  00000+0  00000-0 0  9994
2 30947  45.0000  48.0000 0000000   0.0000 228.0000 15.69614517    14
CTC2_L_00021005-04
1 30948U 24898EB  26070.40842593  .00000000  00000+0  00000-0 0  9994
2 30948  45.0000  48.0000 0000000   0.0000 318.0000 15.69614517    15
CTC2_L_00021006-01
1 30949U 26930UK  26070.40842593  .00000000  00000+0  00000-0 0  9994
2 30949  45.0000  60.0000 0000000   0.0000  60.0000 15.69614517    14
CTC2_L_00021006-02
1 30950U 26611HU  26070.40842593  .00000000  00000+0  00000-0 0  9992
2 30950  45.0000  60.0000 0000000   0.0000 150.0000 15.69614517    16
CTC2_L_00021006-03
1 30951U 22336XA  26070.40842593  .00000000  00000+0  00000-0 0  9993
2 30951  45.0000  60.0000 0000000   0.0000 240.0000 15.69614517    17
CTC2_L_00021006-04
1 30952U 23026LP  26070.40842593  .00000000  00000+0  00000-0 0  9991
2 30952  45.0000  60.0000 0000000   0.0000 330.0000 15.69614517    18
CTC2_L_00021007-01
1 30953U 26447EX  26070.40842593  .00000000  00000+0  00000-0 0  9992
2 30953  45.0000  72.0000 0000000   0.0000  72.0000 15.69614517    15
CTC2_L_00021007-02
1 30954U 24615AM  26070.40842593  .00000000  00000+0  00000-0 0  9998
2 30954  45.0000  72.0000 0000000   0.0000 162.0000 15.69614517    16
CTC2_L_00021007-03
1 30955U 25469VE  26070.40842593  .00000000  00000+0  00000-0 0  9997
2 30955  45.0000  72.0000 0000000   0.0000 252.0000 15.69614517    17
CTC2_L_00021007-04
1 30956U 22225LM  26070.40842593  .00000000  00000+0  00000-0 0  9995
2 30956  45.0000  72.0000 0000000   0.0000 342.0000 15.69614517    18
CTC2_L_00021008-01
1 30957U 26394VE  26070.40842593  .00000000  00000+0  00000-0 0  9997
2 30957  45.0000  84.0000 0000000   0.0000  84.0000 15.69614517    15
CTC2_L_00021008-02
1 30958U 26574QI  26070.40842593  .00000000  00000+0  00000-0 0  9998
2 30958  45.0000  84.0000 0000000   0.0000 174.0000 15.69614517    16
CTC2_L_00021008-03
1 30959U 24387TX  26070.40842593  .00000000  00000+0  00000-0 0  9999
2 30959  45.0000  84.0000 0000000   0.0000 264.0000 15.69614517    17
CTC2_L_00021008-04
1 30960U 24269MH  26070.40842593  .00000000  00000+0  00000-0 0  9990
2 30960  45.0000  84.0000 0000000   0.0000 354.0000 15.69614517    19
CTC2_L_00021009-01
1 30961U 23480ML  26070.40842593  .00000000  00000+0  00000-0 0  9995
2 30961  45.0000  96.0000 0000000   0.0000  96.0000 15.69614517    16
CTC2_L_00021009-02
1 30962U 26970UN  26070.40842593  .00000000  00000+0  00000-0 0  9993
2 30962  45.0000  96.0000 0000000   0.0000 186.0000 15.69614517    17
CTC2_L_00021009-03
1 30963U 22132IU  26070.40842593  .00000000  00000+0  00000-0 0  9990
2 30963  45.0000  96.0000 0000000   0.0000 276.0000 15.69614517    18
CTC2_L_00021009-04
1 30964U 22430XI  26070.40842593  .00000000  00000+0  00000-0 0  9992
2 30964  45.0000  96.0000 0000000   0.0000   6.0000 15.69614517    10
CTC2_L_00021010-01
1 30965U 24523OH  26070.40842593  .00000000  00000+0  00000-0 0  9998
2 30965  45.0000 108.0000 0000000   0.0000 108.0000 15.69614517    18
CTC2_L_00021010-02
1 30966U 23211PU  26070.40842593  .00000000  00000+0  00000-0 0  9992
2 30966  45.0000 108.0000 0000000   0.0000 198.0000 15.69614517    18
CTC2_L_00021010-03
1 30967U 22554BZ  26070.40842593  .00000000  00000+0  00000-0 0  9992
2 30967  45.0000 108.0000 0000000   0.0000 288.0000 15.69614517    19
CTC2_L_00021010-04
1 30968U 23457IX  26070.40842593  .00000000  00000+0  00000-0 0  9996
2 30968  45.0000 108.0000 0000000   0.0000  18.0000 15.69614517    11
CTC2_L_00021011-01
1 30969U 23193UO  26070.40842593  .00000000  00000+0  00000-0 0  9994
2 30969  45.0000 120.0000 0000000   0.0000 120.0000 15.69614517    10
CTC2_L_00021011-02
1 30970U 25992TU  26070.40842593  .00000000  00000+0  00000-0 0  9995
2 30970  45.0000 120.0000 0000000   0.0000 210.0000 15.69614517    12
CTC2_L_00021011-03
1 30971U 24771GU  26070.40842593  .00000000  00000+0  00000-0 0  9990
2 30971  45.0000 120.0000 0000000   0.0000 300.0000 15.69614517    13
CTC2_L_00021011-04
1 30972U 23064ID  26070.40842593  .00000000  00000+0  00000-0 0  9995
2 30972  45.0000 120.0000 0000000   0.0000  30.0000 15.69614517    14
CTC2_L_00021012-01
1 30973U 22934KH  26070.40842593  .00000000  00000+0  00000-0 0  9991
2 30973  45.0000 132.0000 0000000   0.0000 132.0000 15.69614517    11
CTC2_L_00021012-02
1 30974U 23068QH  26070.40842593  .00000000  00000+0  00000-0 0  9991
2 30974  45.0000 132.0000 0000000   0.0000 222.0000 15.69614517    12
CTC2_L_00021012-03
1 30975U 25716H   26070.40842593  .00000000  00000+0  00000-0 0  9994
2 30975  45.0000 132.0000 0000000   0.0000 312.0000 15.69614517    13
CTC2_L_00021012-04
1 30976U 24483FY  26070.40842593  .00000000  00000+0  00000-0 0  9995
2 30976  45.0000 132.0000 0000000   0.0000  42.0000 15.69614517    14
CTC2_L_00021013-01
1 30977U 23407RC  26070.40842593  .00000000  00000+0  00000-0 0  9991
2 30977  45.0000 144.0000 0000000   0.0000 144.0000 15.69614517    11
CTC2_L_00021013-02
1 30978U 25701OY  26070.40842593  .00000000  00000+0  00000-0 0  9991
2 30978  45.0000 144.0000 0000000   0.0000 234.0000 15.69614517    12
CTC2_L_00021013-03
1 30979U 26325FP  26070.40842593  .00000000  00000+0  00000-0 0  9995
2 30979  45.0000 144.0000 0000000   0.0000 324.0000 15.69614517    13
CTC2_L_00021013-04
1 30980U 25954GC  26070.40842593  .00000000  00000+0  00000-0 0  9994
2 30980  45.0000 144.0000 0000000   0.0000  54.0000 15.69614517    15
CTC2_L_00021014-01
1 30981U 23621Q   26070.40842593  .00000000  00000+0  00000-0 0  9994
2 30981  45.0000 156.0000 0000000   0.0000 156.0000 15.69614517    12
CTC2_L_00021014-02
1 30982U 25906PY  26070.40842593  .00000000  00000+0  00000-0 0  9993
2 30982  45.0000 156.0000 0000000   0.0000 246.0000 15.69614517    13
CTC2_L_00021014-03
1 30983U 23333GJ  26070.40842593  .00000000  00000+0  00000-0 0  9996
2 30983  45.0000 156.0000 0000000   0.0000 336.0000 15.69614517    14
CTC2_L_00021014-04
1 30984U 23193HV  26070.40842593  .00000000  00000+0  00000-0 0  9991
2 30984  45.0000 156.0000 0000000   0.0000  66.0000 15.69614517    15
CTC2_L_00021015-01
1 30985U 23296RB  26070.40842593  .00000000  00000+0  00000-0 0  9996
2 30985  45.0000 168.0000 0000000   0.0000 168.0000 15.69614517    12
CTC2_L_00021015-02
1 30986U 26532F   26070.40842593  .00000000  00000+0  00000-0 0  9993
2 30986  45.0000 168.0000 0000000   0.0000 258.0000 15.69614517    13
CTC2_L_00021015-03
1 30987U 23237H   26070.40842593  .00000000  00000+0  00000-0 0  9993
2 30987  45.0000 168.0000 0000000   0.0000 348.0000 15.69614517    14
CTC2_L_00021015-04
1 30988U 22555GK  26070.40842593  .00000000  00000+0  00000-0 0  9996
2 30988  45.0000 168.0000 0000000   0.0000  78.0000 15.69614517    15
CTC2_L_00021016-01
1 30989U 22852SW  26070.40842593  .00000000  00000+0  00000-0 0  9997
2 30989  45.0000 180.0000 0000000   0.0000 180.0000 15.69614517    14
CTC2_L_00021016-02
1 30990U 22230SM  26070.40842593  .00000000  00000+0  00000-0 0  9999
2 30990  45.0000 180.0000 0000000   0.0000 270.0000 15.69614517    16
